[{"OBJECT_NAME":"KOSEN-1","OBJECT_ID":"2021-102H","EPOCH":"2026-03-09T22:29:54.100608","MEAN_MOTION":15.25323573,"ECCENTRICITY":0.00138659,"INCLINATION":97.3334,"RA_OF_ASC_NODE":113.0569,"ARG_OF_PERICENTER":191.9191,"MEAN_ANOMALY":168.1721,"EPHEMERIS_TYPE":0,"CLASSIFICATION_TYPE":"U","NORAD_CAT_ID":49402,"ELEMENT_SET_NO":999,"REV_AT_EPOCH":23888,"BSTAR":0.00040411561,"MEAN_MOTION_DOT":0.00010142,"MEAN_MOTION_DDOT":0},{"OBJECT_NAME":"STARLINK-36480","OBJECT_ID":"2026-003C","EPOCH":"2026-03-08T12:32:06.804672","MEAN_MOTION":15.2760571,"ECCENTRICITY":0.00016268,"INCLINATION":42.9986,"RA_OF_ASC_NODE":233.8057,"ARG_OF_PERICENTER":243.2269,"MEAN_ANOMALY":116.8416,"EPHEMERIS_TYPE":0,"CLASSIFICATION_TYPE":"U","NORAD_CAT_ID":67336,"ELEMENT_SET_NO":999,"REV_AT_EPOCH":864,"BSTAR":0.0012182774,"MEAN_MOTION_DOT":0.00033441,"MEAN_MOTION_DDOT":0}]
